LEMUR-2-ROUNDTRIPPER    
1 62711U 25009DG  26187.18889186  .00009590  00000+0  69563-3 0  9990
2 62711  97.7222 269.8431 0004515  85.1378 275.0364 15.04126128 80485
LEMUR-2-MYNAMEISJEFF    
1 62712U 25009DH  26187.18732868  .00009639  00000+0  69930-3 0  9997
2 62712  97.7273 270.2338 0003594 118.7243 241.4344 15.04118145 80489
LEMUR-2-LEIA-PHILIP     
1 63246U 25052AN  26187.24896414  .00002298  00000+0  20277-3 0  9998
2 63246  97.6815  78.8772 0004771 142.6736 217.4818 14.97373069 71521
LEMUR-2-LIA-MARTIN      
1 63248U 25052AQ  26187.24721389  .00005843  00000+0  49981-3 0  9990
2 63248  97.6860  79.3784 0005166 112.6456 247.5313 14.97973662 71537
LEMUR-2-DELOITTE-1      
1 63259U 25052BB  26187.15940628  .00004043  00000+0  34958-3 0  9990
2 63259  97.6882  79.6236 0002284  65.5332 294.6128 14.97739734 71532
LEMUR-2-EMERSONROSE     
1 63261U 25052BD  26187.18263905  .00005028  00000+0  41715-3 0  9995
2 63261  97.6867  80.2397 0002715  74.4328 285.7195 14.99234298 71584
LEMUR-2-MARACHE-FRAN    
1 63262U 25052BE  26186.94476772  .00005335  00000+0  43053-3 0  9995
2 63262  97.6872  80.3604 0004405 296.1908  63.8862 15.00274249 71576
LEMUR-2-THEFALCONER     
1 63264U 25052BG  26187.25540767  .00004861  00000+0  42159-3 0  9997
2 63264  97.6842  79.3170 0000962  29.1762 330.9514 14.97528478 71547
LEMUR-2-UNTITLED-SC     
1 63351U 25061A   26186.93073738  .00004262  00000+0  24019-3 0  9997
2 63351  97.5649 162.1578 0018218 194.9131 165.1565 15.13606209 70423
LEMUR-2-ESPERANZA       
1 63352U 25061B   26186.90672510  .00006161  00000+0  34450-3 0  9998
2 63352  97.5654 162.2317 0017832 194.0477 166.0260 15.13711408 70427
LEMUR-2-KREMPEL-BRO2    
1 63353U 25061C   26186.92830243  .00004181  00000+0  23215-3 0  9997
2 63353  97.5704 162.8106 0018981 186.7372 173.3607 15.14137182 70444
LEMUR-2-THERMORAPTOR    
1 63354U 25061D   26187.17369733  .00003598  00000+0  19988-3 0  9990
2 63354  97.5707 163.1337 0018779 184.6658 175.4402 15.14220361 70489
LEMUR-2-NEUROSPICY      
1 63355U 25061E   26186.87960767  .00005004  00000+0  27581-3 0  9993
2 63355  97.5634 162.4530 0016493 188.7768 171.3178 15.14336803 70444
LEMUR-2-TILLINFINITY    
1 63356U 25061F   26187.17187239  .00003744  00000+0  20385-3 0  9997
2 63356  97.5620 163.0472 0018136 175.9970 184.1410 15.14921777 70510
LEMUR-2-KREMPEL-BRO1    
1 63357U 25061G   26186.88353429  .00004938  00000+0  26903-3 0  9999
2 63357  97.5621 162.6713 0018699 178.6211 181.5075 15.14727577 70461
LEMUR-2-LANGER2SPACE    
1 63358U 25061H   26186.97985486  .00004021  00000+0  22185-3 0  9995
2 63358  97.5625 162.5736 0016474 186.4636 173.6386 15.14422814 70460
LEMUR-2-BALTO           
1 63395U 25052BH  26186.92938124  .00006808  00000+0  54748-3 0  9993
2 63395  97.6925  80.3241 0005772   3.4548 356.6714 15.00303098 71570
LEMUR-2-KRISH           
1 64561U 25135AK  26186.86581580  .00006885  00000+0  61259-3 0  9994
2 64561  97.7758 301.6157 0001667 102.9872 257.1536 14.96389203 56712
LEMUR-2-HUBBLE-4        
1 64565U 25135AP  26186.96350627  .00001478  00000+0  14524-3 0  9991
2 64565  97.7713 300.6492 0001840 189.8038 170.3146 14.93667204 56674
LEMUR-2-SEJONG-2        
1 64586U 25135BL  26187.29083828  .00003490  00000+0  30935-3 0  9997
2 64586  97.7710 302.1843 0003072 258.5570 101.5307 14.96869936 56804
LEMUR-2-HUBBLE-5        
1 64840U 25135BT  26186.84166733  .00001559  00000+0  15085-3 0  9990
2 64840  97.7733 301.1878 0004089 276.8419  83.2336 14.94193186 56693
LEMUR-2-KARENDARRELL    
1 64841U 25135BU  26186.86014886  .00008711  00000+0  69651-3 0  9999
2 64841  97.7697 303.0409 0011480 134.6980 225.5180 15.00409594 56814
LEMUR-2-LUCILLE-ROSE    
1 65403U 25135BV  26186.76687887  .00009864  00000+0  78739-3 0  9997
2 65403  97.7723 302.9819 0013675 218.3295 141.6958 15.00412220 51422
LEMUR-2-AFFIE-WAUWIE    
1 66295U 25248C   26186.82496655  .00022785  00000+0  82702-3 0  9992
2 66295  45.3926  13.9564 0008363 202.7682 157.2838 15.27976863 37440
LEMUR-2-DEANANDMAEVE    
1 66678U 25276N   26187.14438525  .00007494  00000+0  35110-3 0  9997
2 66678  97.4199 260.3076 0004246 297.3184  62.7619 15.19983006 33298
LEMUR-2-STAS-GORBUK     
1 66686U 25276W   26187.16347759  .00006473  00000+0  30715-3 0  9998
2 66686  97.4233 260.3793 0003514 294.6730  65.4139 15.19595995 33299
LEMUR-2-TEODOR          
1 66768U 25276DG  26187.19220302  .00005899  00000+0  26697-3 0  9991
2 66768  97.4139 260.6680 0002356  97.3596 262.7907 15.21272381 33338
LEMUR-2-LAILA           
1 66776U 25276DQ  26187.16333770  .00006559  00000+0  29452-3 0  9997
2 66776  97.4163 260.7722 0002844 107.6963 252.4583 15.21496473 33333
LEMUR-2-CELIJO-SB-PK    
1 66781U 25276DW  26187.18077728  .00006720  00000+0  54133-3 0  9997
2 66781  97.5200 257.3328 0007504  86.3830 273.8252 15.00221504 25474
